[
  {
    "ProvinceName": "تهران",
    "PhoneCode": "021"
  },
  {
    "ProvinceName": "اصفهان",
    "PhoneCode": "031"
  },
  {
    "ProvinceName": "خراسان رضوی",
    "PhoneCode": "051"
  },
  {
    "ProvinceName": "فارس",
    "PhoneCode": "071"
  },
  {
    "ProvinceName": "آذربایجان شرقی",
    "PhoneCode": "041"
  },
  {
    "ProvinceName": "خوزستان",
    "PhoneCode": "061"
  },
  {
    "ProvinceName": "البرز",
    "PhoneCode": "026"
  },
  {
    "ProvinceName": "قم",
    "PhoneCode": "025"
  },
  {
    "ProvinceName": "یزد",
    "PhoneCode": "035"
  },
  {
    "ProvinceName": "گیلان",
    "PhoneCode": "013"
  },
  {
    "ProvinceName": "آذربایجان غربی",
    "PhoneCode": "044"
  },
  {
    "ProvinceName": "سیستان و بلوچستان",
    "PhoneCode": "054"
  },
  {
    "ProvinceName": "کردستان",
    "PhoneCode": "087"
  },
  {
    "ProvinceName": "خراسان شمالی",
    "PhoneCode": "058"
  },
  {
    "ProvinceName": "مازندران",
    "PhoneCode": "011"
  },
  {
    "ProvinceName": "هرمزگان",
    "PhoneCode": "076"
  },
  {
    "ProvinceName": "لرستان",
    "PhoneCode": "066"
  },
  {
    "ProvinceName": "قزوین",
    "PhoneCode": "028"
  },
  {
    "ProvinceName": "همدان",
    "PhoneCode": "081"
  },
  {
    "ProvinceName": "کهگیلویه و بویراحمد",
    "PhoneCode": "083"
  },
  {
    "ProvinceName": "اردبیل",
    "PhoneCode": "045"
  },
  {
    "ProvinceName": "خراسان جنوبی",
    "PhoneCode": "056"
  },
  {
    "ProvinceName": "زنجان",
    "PhoneCode": "024"
  },
  {
    "ProvinceName": "سمنان",
    "PhoneCode": "023"
  },
  {
    "ProvinceName": "ایلام",
    "PhoneCode": "084"
  },
  {
    "ProvinceName": "گلستان",
    "PhoneCode": "017"
  },
  {
    "ProvinceName": "بوشهر",
    "PhoneCode": "077"
  },
  {
    "ProvinceName": "مرکزی",
    "PhoneCode": "086"
  },
  {
    "ProvinceName": "چهارمحال و بختیاری",
    "PhoneCode": "038"
  }
]